AQUA                    
1 27424U 02022A   21324.13949264  .00000165  00000-0  46725-4 0  9995
2 27424  98.2249 263.3251 0001523 108.7441   8.6172 14.57109304 39744
